{
  "type": "FeatureCollection",
  "features": [
    {
      "type": "Feature",
      "properties": {
        "norad_id": 28890,
        "name": "BEIJING 1",
        "group": "dmc",
        "lat": -50.38419482799278,
        "lon": 137.06241950012546,
        "alt_km": 699.3204692382697,
        "timestamp": "2025-12-25T09:48:51.952748+00:00",
        "meta_object_name": "BEIJING 1",
        "meta_object_id": "2005-043A",
        "meta_epoch": "2025-12-24T22:33:39.428352",
        "meta_mean_motion": 14.6337699,
        "meta_eccentricity": 0.00158282,
        "meta_inclination": 98.2665,
        "meta_ra_of_asc_node": 126.4766,
        "meta_arg_of_pericenter": 105.4148,
        "meta_mean_anomaly": 254.8804,
        "meta_ephemeris_type": 0,
        "meta_classification_type": "U",
        "meta_norad_cat_id": 28890,
        "meta_element_set_no": 999,
        "meta_rev_at_epoch": 7516,
        "meta_bstar": 0.00010442755,
        "meta_mean_motion_dot": 4.92e-06,
        "meta_mean_motion_ddot": 0,
        "tle_line1": "1 28890U 05043A   25358.94003968  .00000492  00000+0  10443-3 0  9990",
        "tle_line2": "2 28890  98.2665 126.4766 0015828 105.4148 254.8804 14.63376990 75162"
      },
      "geometry": {
        "type": "Point",
        "coordinates": [
          137.06241950012546,
          -50.38419482799278
        ]
      }
    },
    {
      "type": "Feature",
      "properties": {
        "norad_id": 33320,
        "name": "HUANJING 1A (HJ-1A)",
        "group": "dmc",
        "lat": 11.193840405223447,
        "lon": 168.7037948099172,
        "alt_km": 633.3771874037375,
        "timestamp": "2025-12-25T09:48:51.952771+00:00",
        "meta_object_name": "HUANJING 1A (HJ-1A)",
        "meta_object_id": "2008-041A",
        "meta_epoch": "2025-12-25T05:49:08.863680",
        "meta_mean_motion": 14.83431218,
        "meta_eccentricity": 0.0019234,
        "meta_inclination": 97.6549,
        "meta_ra_of_asc_node": 347.0191,
        "meta_arg_of_pericenter": 354.464,
        "meta_mean_anomaly": 5.6359,
        "meta_ephemeris_type": 0,
        "meta_classification_type": "U",
        "meta_norad_cat_id": 33320,
        "meta_element_set_no": 999,
        "meta_rev_at_epoch": 93261,
        "meta_bstar": 0.00018487,
        "meta_mean_motion_dot": 1.471e-05,
        "meta_mean_motion_ddot": 0,
        "tle_line1": "1 33320U 08041A   25359.24246370  .00001471  00000+0  18487-3 0  9999",
        "tle_line2": "2 33320  97.6549 347.0191 0019234 354.4640   5.6359 14.83431218932617"
      },
      "geometry": {
        "type": "Point",
        "coordinates": [
          168.7037948099172,
          11.193840405223447
        ]
      }
    },
    {
      "type": "Feature",
      "properties": {
        "norad_id": 33321,
        "name": "HUANJING 1B (HJ-1B)",
        "group": "dmc",
        "lat": 3.02920901922037,
        "lon": -9.564690041429643,
        "alt_km": 600.6477467983887,
        "timestamp": "2025-12-25T09:48:51.952786+00:00",
        "meta_object_name": "HUANJING 1B (HJ-1B)",
        "meta_object_id": "2008-041B",
        "meta_epoch": "2025-12-25T04:56:32.293248",
        "meta_mean_motion": 14.82854123,
        "meta_eccentricity": 0.0037706,
        "meta_inclination": 97.6406,
        "meta_ra_of_asc_node": 350.6483,
        "meta_arg_of_pericenter": 36.2647,
        "meta_mean_anomaly": 324.1112,
        "meta_ephemeris_type": 0,
        "meta_classification_type": "U",
        "meta_norad_cat_id": 33321,
        "meta_element_set_no": 999,
        "meta_rev_at_epoch": 93262,
        "meta_bstar": 0.00023256,
        "meta_mean_motion_dot": 1.855e-05,
        "meta_mean_motion_ddot": 0,
        "tle_line1": "1 33321U 08041B   25359.20592932  .00001855  00000+0  23256-3 0  9990",
        "tle_line2": "2 33321  97.6406 350.6483 0037706  36.2647 324.1112 14.82854123932620"
      },
      "geometry": {
        "type": "Point",
        "coordinates": [
          -9.564690041429643,
          3.02920901922037
        ]
      }
    },
    {
      "type": "Feature",
      "properties": {
        "norad_id": 33446,
        "name": "YAOGAN-4",
        "group": "dmc",
        "lat": -82.02203858193732,
        "lon": 26.02808254941667,
        "alt_km": 619.1509647063194,
        "timestamp": "2025-12-25T09:48:51.952798+00:00",
        "meta_object_name": "YAOGAN-4",
        "meta_object_id": "2008-061A",
        "meta_epoch": "2025-12-25T02:07:30.287136",
        "meta_mean_motion": 14.82717433,
        "meta_eccentricity": 0.0012975,
        "meta_inclination": 97.9198,
        "meta_ra_of_asc_node": 289.0675,
        "meta_arg_of_pericenter": 279.4954,
        "meta_mean_anomaly": 80.4792,
        "meta_ephemeris_type": 0,
        "meta_classification_type": "U",
        "meta_norad_cat_id": 33446,
        "meta_element_set_no": 999,
        "meta_rev_at_epoch": 91986,
        "meta_bstar": 0.00017896,
        "meta_mean_motion_dot": 1.392e-05,
        "meta_mean_motion_ddot": 0,
        "tle_line1": "1 33446U 08061A   25359.08854499  .00001392  00000+0  17896-3 0  9994",
        "tle_line2": "2 33446  97.9198 289.0675 0012975 279.4954  80.4792 14.82717433919869"
      },
      "geometry": {
        "type": "Point",
        "coordinates": [
          26.02808254941667,
          -82.02203858193732
        ]
      }
    },
    {
      "type": "Feature",
      "properties": {
        "norad_id": 35681,
        "name": "DEIMOS-1",
        "group": "dmc",
        "lat": 45.63036660418033,
        "lon": 151.4567207149994,
        "alt_km": 639.6343622887198,
        "timestamp": "2025-12-25T09:48:51.952810+00:00",
        "meta_object_name": "DEIMOS-1",
        "meta_object_id": "2009-041A",
        "meta_epoch": "2025-12-25T04:43:17.307840",
        "meta_mean_motion": 14.74969642,
        "meta_eccentricity": 0.0002464,
        "meta_inclination": 97.7156,
        "meta_ra_of_asc_node": 159.2207,
        "meta_arg_of_pericenter": 60.1221,
        "meta_mean_anomaly": 300.0233,
        "meta_ephemeris_type": 0,
        "meta_classification_type": "U",
        "meta_norad_cat_id": 35681,
        "meta_element_set_no": 999,
        "meta_rev_at_epoch": 88123,
        "meta_bstar": 7.6484e-05,
        "meta_mean_motion_dot": 4.67e-06,
        "meta_mean_motion_ddot": 0,
        "tle_line1": "1 35681U 09041A   25359.19672810  .00000467  00000+0  76484-4 0  9994",
        "tle_line2": "2 35681  97.7156 159.2207 0002464  60.1221 300.0233 14.74969642881239"
      },
      "geometry": {
        "type": "Point",
        "coordinates": [
          151.4567207149994,
          45.63036660418033
        ]
      }
    },
    {
      "type": "Feature",
      "properties": {
        "norad_id": 35683,
        "name": "UK-DMC 2",
        "group": "dmc",
        "lat": 81.8576223625254,
        "lon": 28.794130150951705,
        "alt_km": 634.5348403800108,
        "timestamp": "2025-12-25T09:48:51.952820+00:00",
        "meta_object_name": "UK-DMC 2",
        "meta_object_id": "2009-041C",
        "meta_epoch": "2025-12-25T04:30:59.219424",
        "meta_mean_motion": 14.75645435,
        "meta_eccentricity": 0.000158,
        "meta_inclination": 97.8574,
        "meta_ra_of_asc_node": 133.7402,
        "meta_arg_of_pericenter": 91.7871,
        "meta_mean_anomaly": 268.352,
        "meta_ephemeris_type": 0,
        "meta_classification_type": "U",
        "meta_norad_cat_id": 35683,
        "meta_element_set_no": 999,
        "meta_rev_at_epoch": 88090,
        "meta_bstar": 8.7877e-05,
        "meta_mean_motion_dot": 5.51e-06,
        "meta_mean_motion_ddot": 0,
        "tle_line1": "1 35683U 09041C   25359.18818541  .00000551  00000+0  87877-4 0  9990",
        "tle_line2": "2 35683  97.8574 133.7402 0001580  91.7871 268.3520 14.75645435880909"
      },
      "geometry": {
        "type": "Point",
        "coordinates": [
          28.794130150951705,
          81.8576223625254
        ]
      }
    },
    {
      "type": "Feature",
      "properties": {
        "norad_id": 40715,
        "name": "DMC3-FM1",
        "group": "dmc",
        "lat": -47.44137522878537,
        "lon": 37.701764808716064,
        "alt_km": 616.836991790794,
        "timestamp": "2025-12-25T09:48:51.952831+00:00",
        "meta_object_name": "DMC3-FM1",
        "meta_object_id": "2015-032A",
        "meta_epoch": "2025-12-25T05:33:28.048032",
        "meta_mean_motion": 14.85459616,
        "meta_eccentricity": 0.0004071,
        "meta_inclination": 97.6681,
        "meta_ra_of_asc_node": 225.9684,
        "meta_arg_of_pericenter": 269.5169,
        "meta_mean_anomaly": 90.558,
        "meta_ephemeris_type": 0,
        "meta_classification_type": "U",
        "meta_norad_cat_id": 40715,
        "meta_element_set_no": 999,
        "meta_rev_at_epoch": 56408,
        "meta_bstar": 5.1088e-05,
        "meta_mean_motion_dot": 3.89e-06,
        "meta_mean_motion_ddot": 0,
        "tle_line1": "1 40715U 15032A   25359.23157463  .00000389  00000+0  51088-4 0  9998",
        "tle_line2": "2 40715  97.6681 225.9684 0004071 269.5169  90.5580 14.85459616564081"
      },
      "geometry": {
        "type": "Point",
        "coordinates": [
          37.701764808716064,
          -47.44137522878537
        ]
      }
    },
    {
      "type": "Feature",
      "properties": {
        "norad_id": 40716,
        "name": "DMC3-FM2",
        "group": "dmc",
        "lat": 70.64373588984095,
        "lon": 70.16122133803657,
        "alt_km": 608.4745173927249,
        "timestamp": "2025-12-25T09:48:51.952841+00:00",
        "meta_object_name": "DMC3-FM2",
        "meta_object_id": "2015-032B",
        "meta_epoch": "2025-12-25T04:28:50.450592",
        "meta_mean_motion": 14.85462095,
        "meta_eccentricity": 0.0004636,
        "meta_inclination": 97.6736,
        "meta_ra_of_asc_node": 227.3779,
        "meta_arg_of_pericenter": 275.8912,
        "meta_mean_anomaly": 84.1775,
        "meta_ephemeris_type": 0,
        "meta_classification_type": "U",
        "meta_norad_cat_id": 40716,
        "meta_element_set_no": 999,
        "meta_rev_at_epoch": 56407,
        "meta_bstar": 0.00011795,
        "meta_mean_motion_dot": 9.66e-06,
        "meta_mean_motion_ddot": 0,
        "tle_line1": "1 40716U 15032B   25359.18669503  .00000966  00000+0  11795-3 0  9997",
        "tle_line2": "2 40716  97.6736 227.3779 0004636 275.8912  84.1775 14.85462095564076"
      },
      "geometry": {
        "type": "Point",
        "coordinates": [
          70.16122133803657,
          70.64373588984095
        ]
      }
    },
    {
      "type": "Feature",
      "properties": {
        "norad_id": 40717,
        "name": "DMC3-FM3",
        "group": "dmc",
        "lat": -8.35620152204186,
        "lon": -129.63068020284484,
        "alt_km": 615.5304103784911,
        "timestamp": "2025-12-25T09:48:51.952851+00:00",
        "meta_object_name": "DMC3-FM3",
        "meta_object_id": "2015-032C",
        "meta_epoch": "2025-12-25T05:00:08.250912",
        "meta_mean_motion": 14.85449975,
        "meta_eccentricity": 0.0003895,
        "meta_inclination": 97.6793,
        "meta_ra_of_asc_node": 229.0403,
        "meta_arg_of_pericenter": 277.1769,
        "meta_mean_anomaly": 82.9004,
        "meta_ephemeris_type": 0,
        "meta_classification_type": "U",
        "meta_norad_cat_id": 40717,
        "meta_element_set_no": 999,
        "meta_rev_at_epoch": 56408,
        "meta_bstar": 0.00017093,
        "meta_mean_motion_dot": 1.422e-05,
        "meta_mean_motion_ddot": 0,
        "tle_line1": "1 40717U 15032C   25359.20842883  .00001422  00000+0  17093-3 0  9990",
        "tle_line2": "2 40717  97.6793 229.0403 0003895 277.1769  82.9004 14.85449975564088"
      },
      "geometry": {
        "type": "Point",
        "coordinates": [
          -129.63068020284484,
          -8.35620152204186
        ]
      }
    }
  ]
}